start=new Date('2022-01-22T00:00:00.000Z').valueOf();
sats=[{"RA_OF_ASC_NODE":"220.6044","TLE_LINE1":"1 47161U 20088AR  22021.84202682 -.00003215  00000-0 -19696-3 0  9993","ECCENTRICITY":"0.00023750","MEAN_MOTION_DDOT":"0.0000000000000","DECAY_DATE":null,"INCLINATION":"53.0527","LAUNCH_DATE":"2020-11-25","FILE":"3279423","CENTER_NAME":"EARTH","OBJECT_TYPE":"PAYLOAD","TIME_SYSTEM":"UTC","MEAN_MOTION_DOT":"-0.00003215","OBJECT_NAME":"STARLINK-1876","EPOCH":"2022-01-21T20:12:31.117248","SEMIMAJOR_AXIS":"6925.345","OBJECT_ID":"2020-088AR","MEAN_ANOMALY":"290.5246","SITE":"AFETR","COUNTRY_CODE":"US","MEAN_ELEMENT_THEORY":"SGP4","NORAD_CAT_ID":"47161","ARG_OF_PERICENTER":"69.5998","REV_AT_EPOCH":"6496","EPHEMERIS_TYPE":"0","GP_ID":"194334320","CLASSIFICATION_TYPE":"U","BSTAR":"-0.00019696000000","MEAN_MOTION":"15.06401066","TLE_LINE2":"2 47161  53.0527 220.6044 0002375  69.5998 290.5246 15.06401066 64966","APOAPSIS":"548.855","REF_FRAME":"TEME","PERIOD":"95.592","ELEMENT_SET_NO":"999","PERIAPSIS":"545.566","RCS_SIZE":"LARGE"},{"TLE_LINE1":"1 47162U 20088AS  22021.83742417 -.00000404  00000-0 -81946-5 0  9994","RA_OF_ASC_NODE":"230.6249","MEAN_MOTION_DDOT":"0.0000000000000","ECCENTRICITY":"0.00021130","CENTER_NAME":"EARTH","OBJECT_TYPE":"PAYLOAD","LAUNCH_DATE":"2020-11-25","FILE":"3279423","TIME_SYSTEM":"UTC","INCLINATION":"53.0545","DECAY_DATE":null,"EPOCH":"2022-01-21T20:05:53.448288","OBJECT_NAME":"STARLINK-1877","MEAN_MOTION_DOT":"-0.00000404","SEMIMAJOR_AXIS":"6925.355","OBJECT_ID":"2020-088AS","REV_AT_EPOCH":"6482","MEAN_ANOMALY":"284.5913","SITE":"AFETR","NORAD_CAT_ID":"47162","COUNTRY_CODE":"US","MEAN_ELEMENT_THEORY":"SGP4","ARG_OF_PERICENTER":"75.5311","GP_ID":"194334832","CLASSIFICATION_TYPE":"U","EPHEMERIS_TYPE":"0","ELEMENT_SET_NO":"999","PERIOD":"95.592","RCS_SIZE":"LARGE","PERIAPSIS":"545.757","MEAN_MOTION":"15.06397782","BSTAR":"-0.00000819460000","REF_FRAME":"TEME","APOAPSIS":"548.684","TLE_LINE2":"2 47162  53.0545 230.6249 0002113  75.5311 284.5913 15.06397782 64829"},{"DECAY_DATE":null,"INCLINATION":"53.0478","FILE":"3279324","LAUNCH_DATE":"2020-11-25","OBJECT_TYPE":"PAYLOAD","CENTER_NAME":"EARTH","TIME_SYSTEM":"UTC","TLE_LINE1":"1 47163U 20088AT  22021.33888509 -.00000892  00000-0 -40988-4 0  9994","RA_OF_ASC_NODE":"242.8850","ECCENTRICITY":"0.00022330","MEAN_MOTION_DDOT":"0.0000000000000","MEAN_MOTION_DOT":"-0.00000892","EPOCH":"2022-01-21T08:07:59.671776","OBJECT_NAME":"STARLINK-1878","MEAN_ANOMALY":"287.9132","SITE":"AFETR","COUNTRY_CODE":"US","MEAN_ELEMENT_THEORY":"SGP4","NORAD_CAT_ID":"47163","ARG_OF_PERICENTER":"72.2100","REV_AT_EPOCH":"6435","SEMIMAJOR_AXIS":"6925.376","OBJECT_ID":"2020-088AT","BSTAR":"-0.00004098800000","MEAN_MOTION":"15.06391124","TLE_LINE2":"2 47163  53.0478 242.8850 0002233  72.2100 287.9132 15.06391124 64353","REF_FRAME":"TEME","APOAPSIS":"548.787","PERIOD":"95.593","ELEMENT_SET_NO":"999","PERIAPSIS":"545.694","RCS_SIZE":"LARGE","EPHEMERIS_TYPE":"0","GP_ID":"194327937","CLASSIFICATION_TYPE":"U"},{"SEMIMAJOR_AXIS":"6925.384","OBJECT_ID":"2020-088AU","COUNTRY_CODE":"US","ARG_OF_PERICENTER":"74.4050","MEAN_ELEMENT_THEORY":"SGP4","NORAD_CAT_ID":"47164","MEAN_ANOMALY":"285.7162","SITE":"AFETR","REV_AT_EPOCH":"6509","EPHEMERIS_TYPE":"0","GP_ID":"194334330","CLASSIFICATION_TYPE":"U","TLE_LINE2":"2 47164  53.0540 210.8332 0002025  74.4050 285.7162 15.06388526 65094","REF_FRAME":"TEME","APOAPSIS":"548.651","BSTAR":"-0.00004154300000","MEAN_MOTION":"15.06388526","PERIAPSIS":"545.846","RCS_SIZE":"LARGE","PERIOD":"95.593","ELEMENT_SET_NO":"999","ECCENTRICITY":"0.00020250","MEAN_MOTION_DDOT":"0.0000000000000","TLE_LINE1":"1 47164U 20088AU  22021.79133642 -.00000900  00000-0 -41543-4 0  9994","RA_OF_ASC_NODE":"210.8332","DECAY_DATE":null,"INCLINATION":"53.0540","TIME_SYSTEM":"UTC","FILE":"3279423","LAUNCH_DATE":"2020-11-25","OBJECT_TYPE":"PAYLOAD","CENTER_NAME":"EARTH","MEAN_MOTION_DOT":"-0.00000900","OBJECT_NAME":"STARLINK-1879","EPOCH":"2022-01-21T18:59:31.466688"},{"MEAN_MOTION_DOT":"0.00002957","OBJECT_NAME":"STARLINK-1880","EPOCH":"2022-01-21T01:36:34.674336","RA_OF_ASC_NODE":"234.0847","TLE_LINE1":"1 47165U 20088AV  22021.06706799  .00002957  00000-0  21739-3 0  9990","MEAN_MOTION_DDOT":"0.0000000000000","ECCENTRICITY":"0.00022320","INCLINATION":"53.0522","DECAY_DATE":null,"CENTER_NAME":"EARTH","OBJECT_TYPE":"PAYLOAD","FILE":"3279324","LAUNCH_DATE":"2020-11-25","TIME_SYSTEM":"UTC","CLASSIFICATION_TYPE":"U","GP_ID":"194329436","EPHEMERIS_TYPE":"0","MEAN_MOTION":"15.06393609","BSTAR":"0.00021739000000","REF_FRAME":"TEME","APOAPSIS":"548.779","TLE_LINE2":"2 47165  53.0522 234.0847 0002232  76.6929 283.4309 15.06393609 64458","ELEMENT_SET_NO":"999","PERIOD":"95.593","PERIAPSIS":"545.687","RCS_SIZE":"LARGE","SEMIMAJOR_AXIS":"6925.368","OBJECT_ID":"2020-088AV","MEAN_ANOMALY":"283.4309","SITE":"AFETR","ARG_OF_PERICENTER":"76.6929","COUNTRY_CODE":"US","MEAN_ELEMENT_THEORY":"SGP4","NORAD_CAT_ID":"47165","REV_AT_EPOCH":"6445"},{"OBJECT_ID":"2020-088AW","SEMIMAJOR_AXIS":"6841.734","SITE":"AFETR","MEAN_ANOMALY":"231.4483","COUNTRY_CODE":"US","ARG_OF_PERICENTER":"128.6685","MEAN_ELEMENT_THEORY":"SGP4","NORAD_CAT_ID":"47166","REV_AT_EPOCH":"6525","GP_ID":"194329187","CLASSIFICATION_TYPE":"U","EPHEMERIS_TYPE":"0","MEAN_MOTION":"15.34099199","BSTAR":"0.00046384000000","REF_FRAME":"TEME","APOAPSIS":"464.880","TLE_LINE2":"2 47166  53.0483 180.1469 0001872 128.6685 231.4483 15.34099199 65255","ELEMENT_SET_NO":"999","PERIOD":"93.866","RCS_SIZE":"LARGE","PERIAPSIS":"462.319","TLE_LINE1":"1 47166U 20088AW  22021.45672381  .00015180  00000-0  46384-3 0  9998","RA_OF_ASC_NODE":"180.1469","MEAN_MOTION_DDOT":"0.0000000000000","ECCENTRICITY":"0.00018720","INCLINATION":"53.0483","DECAY_DATE":null,"CENTER_NAME":"EARTH","OBJECT_TYPE":"PAYLOAD","LAUNCH_DATE":"2020-11-25","FILE":"3279324","TIME_SYSTEM":"UTC","MEAN_MOTION_DOT":"0.00015180","OBJECT_NAME":"STARLINK-1881","EPOCH":"2022-01-21T10:57:40.937184"},{"SEMIMAJOR_AXIS":"6925.386","OBJECT_ID":"2020-088AX","NORAD_CAT_ID":"47167","COUNTRY_CODE":"US","MEAN_ELEMENT_THEORY":"SGP4","ARG_OF_PERICENTER":"181.2849","MEAN_ANOMALY":"178.8133","SITE":"AFETR","REV_AT_EPOCH":"6452","CLASSIFICATION_TYPE":"U","GP_ID":"194328437","EPHEMERIS_TYPE":"0","REF_FRAME":"TEME","APOAPSIS":"549.069","TLE_LINE2":"2 47167  53.0530 232.0724 0002625 181.2849 178.8133 15.06387741 64521","MEAN_MOTION":"15.06387741","BSTAR":"-0.00003081200000","PERIAPSIS":"545.433","RCS_SIZE":"LARGE","ELEMENT_SET_NO":"999","PERIOD":"95.593","MEAN_MOTION_DDOT":"0.0000000000000","ECCENTRICITY":"0.00026250","RA_OF_ASC_NODE":"232.0724","TLE_LINE1":"1 47167U 20088AX  22021.51673591 -.00000741  00000-0 -30812-4 0  9999","INCLINATION":"53.0530","DECAY_DATE":null,"TIME_SYSTEM":"UTC","CENTER_NAME":"EARTH","OBJECT_TYPE":"PAYLOAD","LAUNCH_DATE":"2020-11-25","FILE":"3279324","MEAN_MOTION_DOT":"-0.00000741","EPOCH":"2022-01-21T12:24:05.982624","OBJECT_NAME":"STARLINK-1884"},{"MEAN_MOTION_DOT":"0.00697716","EPOCH":"2022-01-21T19:17:32.613216","OBJECT_NAME":"STARLINK-1885","RA_OF_ASC_NODE":"221.2440","TLE_LINE1":"1 47168U 20088AY  22021.80384969  .00697716  00000-0  15856-1 0  9990","ECCENTRICITY":"0.00014230","MEAN_MOTION_DDOT":"0.0000000000000","INCLINATION":"53.0566","DECAY_DATE":null,"LAUNCH_DATE":"2020-11-25","FILE":"3279425","CENTER_NAME":"EARTH","OBJECT_TYPE":"PAYLOAD","TIME_SYSTEM":"UTC","EPHEMERIS_TYPE":"0","CLASSIFICATION_TYPE":"U","GP_ID":"194334361","BSTAR":"0.01585600000000","MEAN_MOTION":"15.40149192","TLE_LINE2":"2 47168  53.0566 221.2440 0001423  19.4744 340.6314 15.40149192 65005","REF_FRAME":"TEME","APOAPSIS":"446.642","PERIOD":"93.497","ELEMENT_SET_NO":"999","PERIAPSIS":"444.700","RCS_SIZE":"LARGE","OBJECT_ID":"2020-088AY","SEMIMAJOR_AXIS":"6823.806","MEAN_ANOMALY":"340.6314","SITE":"AFETR","COUNTRY_CODE":"US","NORAD_CAT_ID":"47168","MEAN_ELEMENT_THEORY":"SGP4","ARG_OF_PERICENTER":"19.4744","REV_AT_EPOCH":"6500"},{"REV_AT_EPOCH":"6486","SITE":"AFETR","MEAN_ANOMALY":"287.8173","NORAD_CAT_ID":"47170","COUNTRY_CODE":"US","MEAN_ELEMENT_THEORY":"SGP4","ARG_OF_PERICENTER":"72.3069","OBJECT_ID":"2020-088BA","SEMIMAJOR_AXIS":"6925.358","PERIOD":"95.592","ELEMENT_SET_NO":"999","PERIAPSIS":"545.614","RCS_SIZE":"LARGE","BSTAR":"0.00012502000000","MEAN_MOTION":"15.06396935","TLE_LINE2":"2 47170  53.0531 230.6489 0002323  72.3069 287.8173 15.06396935 64864","REF_FRAME":"TEME","APOAPSIS":"548.832","EPHEMERIS_TYPE":"0","CLASSIFICATION_TYPE":"U","GP_ID":"194336511","FILE":"3279512","LAUNCH_DATE":"2020-11-25","CENTER_NAME":"EARTH","OBJECT_TYPE":"PAYLOAD","TIME_SYSTEM":"UTC","INCLINATION":"53.0531","DECAY_DATE":null,"TLE_LINE1":"1 47170U 20088BA  22021.83373380  .00001581  00000-0  12502-3 0  9997","RA_OF_ASC_NODE":"230.6489","ECCENTRICITY":"0.00023230","MEAN_MOTION_DDOT":"0.0000000000000","OBJECT_NAME":"STARLINK-1887","EPOCH":"2022-01-21T20:00:34.600320","MEAN_MOTION_DOT":"0.00001581"},{"DECAY_DATE":null,"INCLINATION":"53.0529","OBJECT_TYPE":"PAYLOAD","CENTER_NAME":"EARTH","FILE":"3279427","LAUNCH_DATE":"2020-11-25","TIME_SYSTEM":"UTC","RA_OF_ASC_NODE":"220.5675","TLE_LINE1":"1 47171U 20088BB  22021.85308517  .00003329  00000-0  24226-3 0  9998","MEAN_MOTION_DDOT":"0.0000000000000","ECCENTRICITY":"0.00021050","MEAN_MOTION_DOT":"0.00003329","OBJECT_NAME":"STARLINK-1888","EPOCH":"2022-01-21T20:28:26.558688","SITE":"AFETR","MEAN_ANOMALY":"285.5163","COUNTRY_CODE":"US","NORAD_CAT_ID":"47171","MEAN_ELEMENT_THEORY":"SGP4","ARG_OF_PERICENTER":"74.6058","REV_AT_EPOCH":"6500","SEMIMAJOR_AXIS":"6925.338","OBJECT_ID":"2020-088BB","MEAN_MOTION":"15.06403548","BSTAR":"0.00024226000000","APOAPSIS":"548.660","REF_FRAME":"TEME","TLE_LINE2":"2 47171  53.0529 220.5675 0002105  74.6058 285.5163 15.06403548 65008","ELEMENT_SET_NO":"999","PERIOD":"95.592","RCS_SIZE":"LARGE","PERIAPSIS":"545.745","GP_ID":"194334897","CLASSIFICATION_TYPE":"U","EPHEMERIS_TYPE":"0"}];
